[{"OBJECT_NAME":"IRIDIUM 173","OBJECT_ID":"2019-002D","EPOCH":"2026-03-05T10:34:54.663744","MEAN_MOTION":14.34217513,"ECCENTRICITY":0.00020153,"INCLINATION":86.396,"RA_OF_ASC_NODE":36.9089,"ARG_OF_PERICENTER":81.2725,"MEAN_ANOMALY":278.8699,"EPHEMERIS_TYPE":0,"CLASSIFICATION_TYPE":"U","NORAD_CAT_ID":43925,"ELEMENT_SET_NO":999,"REV_AT_EPOCH":37408,"BSTAR":0.00011385078,"MEAN_MOTION_DOT":3.39e-6,"MEAN_MOTION_DDOT":0},{"OBJECT_NAME":"IRIDIUM 169","OBJECT_ID":"2019-002E","EPOCH":"2026-03-05T13:04:12.632160","MEAN_MOTION":14.38610855,"ECCENTRICITY":0.00015191,"INCLINATION":86.4167,"RA_OF_ASC_NODE":68.5219,"ARG_OF_PERICENTER":77.1487,"MEAN_ANOMALY":282.9881,"EPHEMERIS_TYPE":0,"CLASSIFICATION_TYPE":"U","NORAD_CAT_ID":43926,"ELEMENT_SET_NO":999,"REV_AT_EPOCH":37532,"BSTAR":6.2379641e-5,"MEAN_MOTION_DOT":2.11e-6,"MEAN_MOTION_DDOT":0},{"OBJECT_NAME":"IRIDIUM 172","OBJECT_ID":"2019-002F","EPOCH":"2026-03-05T10:25:46.881696","MEAN_MOTION":14.34218219,"ECCENTRICITY":0.00023593,"INCLINATION":86.3966,"RA_OF_ASC_NODE":36.9186,"ARG_OF_PERICENTER":86.257,"MEAN_ANOMALY":273.8896,"EPHEMERIS_TYPE":0,"CLASSIFICATION_TYPE":"U","NORAD_CAT_ID":43927,"ELEMENT_SET_NO":999,"REV_AT_EPOCH":37409,"BSTAR":2.6761695e-5,"MEAN_MOTION_DOT":9.5e-7,"MEAN_MOTION_DDOT":0},{"OBJECT_NAME":"IRIDIUM 175","OBJECT_ID":"2019-002G","EPOCH":"2026-03-05T05:33:44.852832","MEAN_MOTION":14.72248933,"ECCENTRICITY":0.00023469,"INCLINATION":86.154,"RA_OF_ASC_NODE":334.7738,"ARG_OF_PERICENTER":110.5189,"MEAN_ANOMALY":249.628,"EPHEMERIS_TYPE":0,"CLASSIFICATION_TYPE":"U","NORAD_CAT_ID":43928,"ELEMENT_SET_NO":999,"REV_AT_EPOCH":38394,"BSTAR":0.00011267418,"MEAN_MOTION_DOT":7.35e-6,"MEAN_MOTION_DDOT":0},{"OBJECT_NAME":"IRIDIUM 171","OBJECT_ID":"2019-002H","EPOCH":"2026-03-05T09:58:22.914336","MEAN_MOTION":14.34217398,"ECCENTRICITY":0.00019671,"INCLINATION":86.397,"RA_OF_ASC_NODE":37.222,"ARG_OF_PERICENTER":91.6685,"MEAN_ANOMALY":268.4736,"EPHEMERIS_TYPE":0,"CLASSIFICATION_TYPE":"U","NORAD_CAT_ID":43929,"ELEMENT_SET_NO":999,"REV_AT_EPOCH":37408,"BSTAR":-8.52322e-6,"MEAN_MOTION_DOT":-4.0e-8,"MEAN_MOTION_DDOT":0},{"OBJECT_NAME":"IRIDIUM 170","OBJECT_ID":"2019-002J","EPOCH":"2026-03-05T10:42:53.073504","MEAN_MOTION":14.72251213,"ECCENTRICITY":0.00027113,"INCLINATION":86.6085,"RA_OF_ASC_NODE":36.8996,"ARG_OF_PERICENTER":90.1738,"MEAN_ANOMALY":269.979,"EPHEMERIS_TYPE":0,"CLASSIFICATION_TYPE":"U","NORAD_CAT_ID":43930,"ELEMENT_SET_NO":999,"REV_AT_EPOCH":38399,"BSTAR":0.00030417981,"MEAN_MOTION_DOT":1.943e-5,"MEAN_MOTION_DDOT":0},{"OBJECT_NAME":"IRIDIUM 167","OBJECT_ID":"2019-002K","EPOCH":"2026-03-05T09:49:14.859264","MEAN_MOTION":14.34217409,"ECCENTRICITY":0.00017478,"INCLINATION":86.3962,"RA_OF_ASC_NODE":36.9513,"ARG_OF_PERICENTER":91.2224,"MEAN_ANOMALY":268.9172,"EPHEMERIS_TYPE":0,"CLASSIFICATION_TYPE":"U","NORAD_CAT_ID":43931,"ELEMENT_SET_NO":999,"REV_AT_EPOCH":37408,"BSTAR":-1.6131793e-5,"MEAN_MOTION_DOT":-2.5e-7,"MEAN_MOTION_DDOT":0},{"OBJECT_NAME":"IRIDIUM 181","OBJECT_ID":"2023-068S","EPOCH":"2026-03-05T14:20:38.462496","MEAN_MOTION":14.43315916,"ECCENTRICITY":0.0002618,"INCLINATION":86.4458,"RA_OF_ASC_NODE":100.1117,"ARG_OF_PERICENTER":97.3562,"MEAN_ANOMALY":262.7937,"EPHEMERIS_TYPE":0,"CLASSIFICATION_TYPE":"U","NORAD_CAT_ID":56726,"ELEMENT_SET_NO":999,"REV_AT_EPOCH":14749,"BSTAR":0.00012629874,"MEAN_MOTION_DOT":4.45e-6,"MEAN_MOTION_DDOT":0},{"OBJECT_NAME":"IRIDIUM 177","OBJECT_ID":"2023-068T","EPOCH":"2026-03-05T06:48:30.522240","MEAN_MOTION":14.80246309,"ECCENTRICITY":0.00023519,"INCLINATION":86.1998,"RA_OF_ASC_NODE":18.1132,"ARG_OF_PERICENTER":80.9484,"MEAN_ANOMALY":279.2003,"EPHEMERIS_TYPE":0,"CLASSIFICATION_TYPE":"U","NORAD_CAT_ID":56727,"ELEMENT_SET_NO":999,"REV_AT_EPOCH":15099,"BSTAR":0.00027367101,"MEAN_MOTION_DOT":2.107e-5,"MEAN_MOTION_DDOT":0},{"OBJECT_NAME":"IRIDIUM 174","OBJECT_ID":"2023-068U","EPOCH":"2026-03-05T10:25:05.459808","MEAN_MOTION":14.72254634,"ECCENTRICITY":0.00032579,"INCLINATION":86.6107,"RA_OF_ASC_NODE":37.0407,"ARG_OF_PERICENTER":76.5111,"MEAN_ANOMALY":283.6469,"EPHEMERIS_TYPE":0,"CLASSIFICATION_TYPE":"U","NORAD_CAT_ID":56728,"ELEMENT_SET_NO":999,"REV_AT_EPOCH":15075,"BSTAR":0.00022711226,"MEAN_MOTION_DOT":1.457e-5,"MEAN_MOTION_DDOT":0},{"OBJECT_NAME":"IRIDIUM 178","OBJECT_ID":"2023-068V","EPOCH":"2026-03-05T13:02:13.449408","MEAN_MOTION":14.80232056,"ECCENTRICITY":0.00023644,"INCLINATION":86.6483,"RA_OF_ASC_NODE":68.6732,"ARG_OF_PERICENTER":100.7997,"MEAN_ANOMALY":259.349,"EPHEMERIS_TYPE":0,"CLASSIFICATION_TYPE":"U","NORAD_CAT_ID":56729,"ELEMENT_SET_NO":999,"REV_AT_EPOCH":15103,"BSTAR":9.2781147e-5,"MEAN_MOTION_DOT":7.31e-6,"MEAN_MOTION_DDOT":0},{"OBJECT_NAME":"IRIDIUM 179","OBJECT_ID":"2023-068W","EPOCH":"2026-03-05T12:54:29.520288","MEAN_MOTION":14.80233776,"ECCENTRICITY":0.00021927,"INCLINATION":86.6714,"RA_OF_ASC_NODE":77.3547,"ARG_OF_PERICENTER":94.2333,"MEAN_ANOMALY":265.914,"EPHEMERIS_TYPE":0,"CLASSIFICATION_TYPE":"U","NORAD_CAT_ID":56730,"ELEMENT_SET_NO":999,"REV_AT_EPOCH":15103,"BSTAR":0.00012296441,"MEAN_MOTION_DOT":9.6e-6,"MEAN_MOTION_DDOT":0}]
