IRIDIUM 173             
1 43925U 19002D   26064.44091046  .00000339  00000+0  11385-3 0  9996
2 43925  86.3960  36.9089 0002015  81.2725 278.8699 14.34217513374087
IRIDIUM 169             
1 43926U 19002E   26064.54459065  .00000211  00000+0  62380-4 0  9998
2 43926  86.4167  68.5219 0001519  77.1487 282.9881 14.38610855375328
IRIDIUM 172             
1 43927U 19002F   26064.43457039  .00000095  00000+0  26762-4 0  9990
2 43927  86.3966  36.9186 0002359  86.2570 273.8896 14.34218219374096
IRIDIUM 175             
1 43928U 19002G   26064.23176913  .00000735  00000+0  11267-3 0  9992
2 43928  86.1540 334.7738 0002346 110.5189 249.6280 14.72248933383948
IRIDIUM 171             
1 43929U 19002H   26064.41554299 -.00000004  00000+0 -85232-5 0  9996
2 43929  86.3970  37.2220 0001967  91.6685 268.4736 14.34217398374086
IRIDIUM 170             
1 43930U 19002J   26064.44644761  .00001943  00000+0  30418-3 0  9990
2 43930  86.6085  36.8996 0002711  90.1738 269.9790 14.72251213383996
IRIDIUM 167             
1 43931U 19002K   26064.40919976 -.00000025  00000+0 -16132-4 0  9990
2 43931  86.3962  36.9513 0001747  91.2224 268.9172 14.34217409374084
IRIDIUM 181             
1 56726U 23068S   26064.59766739  .00000445  00000+0  12630-3 0  9992
2 56726  86.4458 100.1117 0002618  97.3562 262.7937 14.43315916147491
IRIDIUM 177             
1 56727U 23068T   26064.28368660  .00002107  00000+0  27367-3 0  9990
2 56727  86.1998  18.1132 0002351  80.9484 279.2003 14.80246309150994
IRIDIUM 174             
1 56728U 23068U   26064.43409097  .00001457  00000+0  22711-3 0  9993
2 56728  86.6107  37.0407 0003257  76.5111 283.6469 14.72254634150751
IRIDIUM 178             
1 56729U 23068V   26064.54321122  .00000731  00000+0  92781-4 0  9997
2 56729  86.6483  68.6732 0002364 100.7997 259.3490 14.80232056151039
IRIDIUM 179             
1 56730U 23068W   26064.53784167  .00000960  00000+0  12296-3 0  9996
2 56730  86.6714  77.3547 0002192  94.2333 265.9140 14.80233776151034
